QIANFAN-60              
1 62790U 25016F   25359.29683449  .00000168  00000+0  24176-3 0  9994
2 62790  88.9762 101.7787 0014112 309.3784  50.6116 13.50987596 48925
QIANFAN-61              
1 62791U 25016G   25359.25559088  .00000191  00000+0  27678-3 0  9998
2 62791  88.9829 101.9543 0013047 309.1340  50.8651 13.50984099 48936
QIANFAN-62              
1 62792U 25016H   25359.18567082  .00000175  00000+0  25304-3 0  9990
2 62792  88.9776 101.8233 0014440 309.4808  50.5066 13.50980594 48914
QIANFAN-63              
1 62793U 25016J   25359.21032175  .00000188  00000+0  27313-3 0  9991
2 62793  88.9782 101.7731 0014557 315.3078  44.6899 13.50987392 48953
QIANFAN-64              
1 62794U 25016K   25359.32554012  .00000186  00000+0  26955-3 0  9992
2 62794  88.9769 101.7335 0012416 307.4621  52.5400 13.50982404 48963
QIANFAN-65              
1 62795U 25016L   25359.32140848  .00000154  00000+0  22053-3 0  9991
2 62795  88.9765 101.7596 0012292 309.4705  50.5358 13.50981614 48946
QIANFAN-66              
1 62796U 25016M   25359.27617719  .00000180  00000+0  26100-3 0  9998
2 62796  88.9785 101.7368 0013330 304.3769  55.6121 13.50980908 48987
QIANFAN-67              
1 62797U 25016N   25359.28039020  .00000187  00000+0  27148-3 0  9993
2 62797  88.9775 101.7608 0013373 312.1572  47.8442 13.50985076 48957
QIANFAN-68              
1 62798U 25016P   25359.27206317  .00000176  00000+0  25354-3 0  9993
2 62798  88.9779 101.8073 0013416 310.2152  49.7825 13.50987442 48933
QIANFAN-69              
1 62799U 25016Q   25359.21446595  .00000183  00000+0  26427-3 0  9992
2 62799  88.9757 101.6799 0014181 311.5396  48.4538 13.50990221 48966
QIANFAN-70              
1 62800U 25016R   25359.23097648  .00000181  00000+0  26234-3 0  9992
2 62800  88.9778 101.8194 0013688 300.6982  59.2820 13.50981155 48920
QIANFAN-71              
1 62801U 25016S   25359.30084641  .00000170  00000+0  24448-3 0  9993
2 62801  88.9772 101.7909 0014136 315.2131  44.7878 13.50980716 48930
QIANFAN-72              
1 62802U 25016T   25359.24323500  .00000193  00000+0  27971-3 0  9996
2 62802  88.9762 101.8090 0017523 322.6757  37.3175 13.50980460 48913
QIANFAN-73              
1 63159U 25046A   25359.19633379  .00000154  00000+0  22014-3 0  9997
2 63159  88.9773 318.7335 0016964  86.9196 273.3896 13.50980162 49098
QIANFAN-74              
1 63160U 25046B   25359.17972822  .00000164  00000+0  23615-3 0  9995
2 63160  88.9774 318.6239 0002011  73.6406 286.4966 13.50976967 49156
QIANFAN-75              
1 63161U 25046C   25359.24106262  .00000195  00000+0  28317-3 0  9999
2 63161  88.9775 318.8514 0018081  89.4249 270.8974 13.50982470 49039
QIANFAN-76              
1 63162U 25046D   25359.23771012  .00000138  00000+0  19458-3 0  9993
2 63162  88.9774 318.8324 0015634  89.7405 270.5538 13.50982528 49044
QIANFAN-77              
1 63163U 25046E   25359.22849196  .00000417  00000+0  29374-3 0  9990
2 63163  88.9775 316.7379 0016651  46.4898 313.7659 13.96097290 50194
QIANFAN-78              
1 63164U 25046F   25359.27859991  .00000163  00000+0  23313-3 0  9995
2 63164  88.9773 318.6920 0016991  91.7607 268.5491 13.50980579 49127
QIANFAN-79              
1 63165U 25046G   25359.23318121  .00000177  00000+0  25524-3 0  9998
2 63165  88.9777 318.8047 0016692  90.3033 270.0031 13.50982371 49063
QIANFAN-80              
1 63166U 25046H   25359.24971908  .00000188  00000+0  27180-3 0  9990
2 63166  88.9775 318.5095 0015623  93.8996 266.3942 13.50980326 49226
QIANFAN-81              
1 63167U 25046J   25359.30193680  .00000206  00000+0  30065-3 0  9998
2 63167  88.9775 318.5720 0016721  83.6881 276.6174 13.51006400 49181
QIANFAN-82              
1 63168U 25046K   25359.26217354  .00000186  00000+0  26890-3 0  9997
2 63168  88.9775 318.6201 0014822  90.4974 269.7875 13.50979378 49167
QIANFAN-83              
1 63169U 25046L   25359.26172805  .00000206  00000+0  25086-3 0  9998
2 63169  88.9775 318.3719 0016210  77.2697 283.0271 13.61978643 49308
QIANFAN-84              
1 63170U 25046M   25359.21581541  .00000163  00000+0  23264-3 0  9994
2 63170  88.9774 318.7575 0017802  87.8404 272.4785 13.50989666 49086
QIANFAN-85              
1 63171U 25046N   25359.28672940  .00000188  00000+0  27272-3 0  9996
2 63171  88.9774 318.6218 0015170  89.4334 270.8556 13.50980248 49160
QIANFAN-86              
1 63172U 25046P   25359.22099514  .00000181  00000+0  26192-3 0  9994
2 63172  88.9777 318.4911 0013020  92.9892 267.2749 13.50979882 49236
QIANFAN-87              
1 63173U 25046Q   25359.26640905  .00000172  00000+0  24817-3 0  9997
2 63173  88.9772 318.5976 0013712  88.9383 271.3339 13.50977488 49176
QIANFAN-88              
1 63174U 25046R   25359.20861549  .00000183  00000+0  26425-3 0  9990
2 63174  88.9775 318.5584 0014035  96.0554 264.2197 13.50984132 49193
QIANFAN-89              
1 63175U 25046S   25359.24552596  .00000185  00000+0  26690-3 0  9990
2 63175  88.9775 318.7437 0018477  88.1304 272.1963 13.50980056 49091
QIANFAN-90              
1 63176U 25046T   25359.27426012  .00000160  00000+0  22962-3 0  9998
2 63176  88.9775 318.7131 0015421  86.2896 274.0018 13.50980263 49119
QIANFAN-91              
1 66033U 25233A   25358.70278488 -.02095777  00000+0 -28630+1 0  9997
2 66033  88.9935  60.9015 0011559  10.6267 349.5133 13.63101017  9613
QIANFAN-92              
1 66034U 25233B   25358.68014428 -.01868850  00000+0 -27356+1 0  9990
2 66034  88.9931  60.8951 0014583   2.5069 357.6158 13.58977676  9611
QIANFAN-93              
1 66035U 25233C   25358.63316265 -.02151232  00000+0 -30113+1 0  9995
2 66035  88.9935  60.9114 0013448 353.8000   6.2989 13.61685974  9603
QIANFAN-94              
1 66036U 25233D   25358.92599416 -.02090609  00000+0 -27114+1 0  9996
2 66036  88.9951  60.8610 0013153  23.8360 336.3406 13.66296627  9652
QIANFAN-95              
1 66037U 25233E   25358.51714505 -.02112450  00000+0 -14104+1 0  9994
2 66037  88.9952  60.7274 0013996 359.2264   0.8893 14.05303347  9692
QIANFAN-96              
1 66038U 25233F   25359.09824983 -.02039392  00000+0 -29276+1 0  9990
2 66038  88.9953  60.8675 0011019   5.1772 354.9496 13.59894796  9665
QIANFAN-97              
1 66039U 25233G   25358.68105950 -.02116660  00000+0 -30246+1 0  9994
2 66039  88.9929  60.8892 0012081   8.4137 351.7219 13.60333922  9615
QIANFAN-98              
1 66040U 25233H   25359.08748955 -.01812300  00000+0 -18927+1 0  9994
2 66040  88.9937  60.7577 0016582  14.3416 345.8218 13.79505825  9729
QIANFAN-99              
1 66041U 25233J   25359.13411576 -.01996556  00000+0 -28670+1 0  9999
2 66041  88.9939  60.8570 0011900   5.0069 355.1204 13.59783738  9678
QIANFAN-100             
1 66042U 25233K   25359.03988666 -.02059597  00000+0 -24367+1 0  9993
2 66042  88.9975  60.7909 0014426  13.6428 346.5122 13.71854608  9700
QIANFAN-101             
1 66043U 25233L   25359.22086366  .00000250  00000+0  97293-4 0  9991
2 66043  88.9949  60.5923 0014531   3.5704 356.5591 14.26683056  9820
QIANFAN-102             
1 66044U 25233M   25359.11135017 -.01991152  00000+0 -26389+1 0  9995
2 66044  88.9953  60.8342 0016270  11.6016 348.5515 13.64738355  9687
QIANFAN-103             
1 66045U 25233N   25358.99498036 -.01906822  00000+0 -26877+1 0  9996
2 66045  88.9949  60.8724 0011797   3.0556 357.0671 13.61450354  9652
QIANFAN-104             
1 66046U 25233P   25358.97781065 -.02108129  00000+0 -26585+1 0  9993
2 66046  88.9955  60.8713 0015384  32.5361 327.6745 13.68045735  9661
QIANFAN-105             
1 66047U 25233Q   25358.97520527 -.02001980  00000+0 -18174+1 0  9990
2 66047  88.9949  60.7961 0014559 354.4430   5.6578 13.87537819  9695
QIANFAN-106             
1 66048U 25233R   25358.71706923 -.01956180  00000+0 -26485+1 0  9993
2 66048  88.9973  60.9044 0009008   8.4030 351.7277 13.63383273  9623
QIANFAN-107             
1 66049U 25233S   25358.64817491 -.02136821  00000+0 -28499+1 0  9999
2 66049  88.9941  60.8912 0016936  18.9255 341.2530 13.64640550  9615
QIANFAN-108             
1 66050U 25233T   25358.93313201 -.01919294  00000+0 -26023+1 0  9996
2 66050  88.9943  60.8628 0015662  11.2283 348.9222 13.63873308  9659
